{"type": "FeatureCollection", "features": [{"type": "Feature", "properties": {"norad_id": 36828, "name": "BEIDOU-2 IGSO-1 (C06)", "group": "beidou", "lat": -24.491882797436016, "lon": 145.5369038404347, "alt_km": 35872.93967645259, "timestamp": "2025-12-05T20:43:02.320361+00:00", "meta": {"OBJECT_NAME": "BEIDOU-2 IGSO-1 (C06)", "OBJECT_ID": "2010-036A", "EPOCH": "2025-12-04T10:48:55.401408", "MEAN_MOTION": 1.0027836, "ECCENTRICITY": 0.0051251, "INCLINATION": 54.2839, "RA_OF_ASC_NODE": 164.7233, "ARG_OF_PERICENTER": 215.778, "MEAN_ANOMALY": 323.0243, "EPHEMERIS_TYPE": 0, "CLASSIFICATION_TYPE": "U", "NORAD_CAT_ID": 36828, "ELEMENT_SET_NO": 999, "REV_AT_EPOCH": 5614, "BSTAR": 0, "MEAN_MOTION_DOT": -3.3e-07, "MEAN_MOTION_DDOT": 0}, "tle": {"line1": "1 36828U 10036A   25338.45064122 -.00000033  00000+0  00000+0 0  9997", "line2": "2 36828  54.2839 164.7233 0051251 215.7780 323.0243  1.00278360 56140"}}, "geometry": {"type": "Point", "coordinates": [145.5369038404347, -24.491882797436016]}}, {"type": "Feature", "properties": {"norad_id": 37210, "name": "BEIDOU-2 G4 (C04)", "group": "beidou", "lat": 2.8414963571900125, "lon": -174.35151530483844, "alt_km": 35772.56463686665, "timestamp": "2025-12-05T20:43:02.320384+00:00", "meta": {"OBJECT_NAME": "BEIDOU-2 G4 (C04)", "OBJECT_ID": "2010-057A", "EPOCH": "2025-12-05T05:53:56.141952", "MEAN_MOTION": 1.00271299, "ECCENTRICITY": 0.00109588, "INCLINATION": 3.1649, "RA_OF_ASC_NODE": 69.9566, "ARG_OF_PERICENTER": 189.1211, "MEAN_ANOMALY": 63.7832, "EPHEMERIS_TYPE": 0, "CLASSIFICATION_TYPE": "U", "NORAD_CAT_ID": 37210, "ELEMENT_SET_NO": 999, "REV_AT_EPOCH": 5534, "BSTAR": 0, "MEAN_MOTION_DOT": -1.01e-06, "MEAN_MOTION_DDOT": 0}, "tle": {"line1": "1 37210U 10057A   25339.24578868 -.00000101  00000+0  00000+0 0  9997", "line2": "2 37210   3.1649  69.9566 0010958 189.1211  63.7832  1.00271299 55342"}}, "geometry": {"type": "Point", "coordinates": [-174.35151530483844, 2.8414963571900125]}}, {"type": "Feature", "properties": {"norad_id": 37256, "name": "BEIDOU-2 IGSO-2 (C07)", "group": "beidou", "lat": -27.71940417823474, "lon": 122.49602323142844, "alt_km": 35578.65195893011, "timestamp": "2025-12-05T20:43:02.320400+00:00", "meta": {"OBJECT_NAME": "BEIDOU-2 IGSO-2 (C07)", "OBJECT_ID": "2010-068A", "EPOCH": "2025-12-03T17:22:36.030432", "MEAN_MOTION": 1.0028871, "ECCENTRICITY": 0.00492335, "INCLINATION": 47.9043, "RA_OF_ASC_NODE": 274.2613, "ARG_OF_PERICENTER": 216.1442, "MEAN_ANOMALY": 310.2369, "EPHEMERIS_TYPE": 0, "CLASSIFICATION_TYPE": "U", "NORAD_CAT_ID": 37256, "ELEMENT_SET_NO": 999, "REV_AT_EPOCH": 5483, "BSTAR": 0, "MEAN_MOTION_DOT": -2.25e-06, "MEAN_MOTION_DDOT": 0}, "tle": {"line1": "1 37256U 10068A   25337.72402813 -.00000225  00000+0  00000+0 0  9993", "line2": "2 37256  47.9043 274.2613 0049233 216.1442 310.2369  1.00288710 54839"}}, "geometry": {"type": "Point", "coordinates": [122.49602323142844, -27.71940417823474]}}, {"type": "Feature", "properties": {"norad_id": 37384, "name": "BEIDOU-2 IGSO-3 (C08)", "group": "beidou", "lat": 62.14873660376368, "lon": 133.93581539498487, "alt_km": 35794.78272071202, "timestamp": "2025-12-05T20:43:02.320414+00:00", "meta": {"OBJECT_NAME": "BEIDOU-2 IGSO-3 (C08)", "OBJECT_ID": "2011-013A", "EPOCH": "2025-12-03T14:52:09.520896", "MEAN_MOTION": 1.00272128, "ECCENTRICITY": 0.00353922, "INCLINATION": 62.1308, "RA_OF_ASC_NODE": 42.005, "ARG_OF_PERICENTER": 186.5359, "MEAN_ANOMALY": 174.9093, "EPHEMERIS_TYPE": 0, "CLASSIFICATION_TYPE": "U", "NORAD_CAT_ID": 37384, "ELEMENT_SET_NO": 999, "REV_AT_EPOCH": 5370, "BSTAR": 0, "MEAN_MOTION_DOT": -1.99e-06, "MEAN_MOTION_DDOT": 0}, "tle": {"line1": "1 37384U 11013A   25337.61955464 -.00000199  00000+0  00000+0 0  9999", "line2": "2 37384  62.1308  42.0050 0035392 186.5359 174.9093  1.00272128 53708"}}, "geometry": {"type": "Point", "coordinates": [133.93581539498487, 62.14873660376368]}}, {"type": "Feature", "properties": {"norad_id": 37763, "name": "BEIDOU-2 IGSO-4 (C09)", "group": "beidou", "lat": -35.793501126425234, "lon": 136.47403737729022, "alt_km": 35710.62445187841, "timestamp": "2025-12-05T20:43:02.320426+00:00", "meta": {"OBJECT_NAME": "BEIDOU-2 IGSO-4 (C09)", "OBJECT_ID": "2011-038A", "EPOCH": "2025-12-01T12:32:09.960864", "MEAN_MOTION": 1.00284074, "ECCENTRICITY": 0.01487808, "INCLINATION": 54.5808, "RA_OF_ASC_NODE": 167.4476, "ARG_OF_PERICENTER": 230.2031, "MEAN_ANOMALY": 315.0387, "EPHEMERIS_TYPE": 0, "CLASSIFICATION_TYPE": "U", "NORAD_CAT_ID": 37763, "ELEMENT_SET_NO": 999, "REV_AT_EPOCH": 5266, "BSTAR": 0, "MEAN_MOTION_DOT": 1.01e-06, "MEAN_MOTION_DDOT": 0}, "tle": {"line1": "1 37763U 11038A   25335.52233751  .00000101  00000+0  00000+0 0  9995", "line2": "2 37763  54.5808 167.4476 0148780 230.2031 315.0387  1.00284074 52664"}}, "geometry": {"type": "Point", "coordinates": [136.47403737729022, -35.793501126425234]}}, {"type": "Feature", "properties": {"norad_id": 37948, "name": "BEIDOU-2 IGSO-5 (C10)", "group": "beidou", "lat": -17.56034579646637, "lon": 110.4161238847093, "alt_km": 35340.9186121567, "timestamp": "2025-12-05T20:43:02.320439+00:00", "meta": {"OBJECT_NAME": "BEIDOU-2 IGSO-5 (C10)", "OBJECT_ID": "2011-073A", "EPOCH": "2025-12-04T19:17:55.815936", "MEAN_MOTION": 1.00292045, "ECCENTRICITY": 0.01106348, "INCLINATION": 48.036, "RA_OF_ASC_NODE": 273.956, "ARG_OF_PERICENTER": 222.1589, "MEAN_ANOMALY": 319.7219, "EPHEMERIS_TYPE": 0, "CLASSIFICATION_TYPE": "U", "NORAD_CAT_ID": 37948, "ELEMENT_SET_NO": 999, "REV_AT_EPOCH": 5118, "BSTAR": 0, "MEAN_MOTION_DOT": -1.77e-06, "MEAN_MOTION_DDOT": 0}, "tle": {"line1": "1 37948U 11073A   25338.80411824 -.00000177  00000+0  00000+0 0  9996", "line2": "2 37948  48.0360 273.9560 0110634 222.1589 319.7219  1.00292045 51180"}}, "geometry": {"type": "Point", "coordinates": [110.4161238847093, -17.56034579646637]}}, {"type": "Feature", "properties": {"norad_id": 38091, "name": "BEIDOU-2 G5 (C05)", "group": "beidou", "lat": 0.7581787821564282, "lon": 84.43225643606955, "alt_km": 35830.18138383775, "timestamp": "2025-12-05T20:43:02.320451+00:00", "meta": {"OBJECT_NAME": "BEIDOU-2 G5 (C05)", "OBJECT_ID": "2012-008A", "EPOCH": "2025-12-05T01:59:26.111904", "MEAN_MOTION": 1.00272818, "ECCENTRICITY": 0.00124323, "INCLINATION": 3.089, "RA_OF_ASC_NODE": 70.7304, "ARG_OF_PERICENTER": 225.8222, "MEAN_ANOMALY": 226.162, "EPHEMERIS_TYPE": 0, "CLASSIFICATION_TYPE": "U", "NORAD_CAT_ID": 38091, "ELEMENT_SET_NO": 999, "REV_AT_EPOCH": 5042, "BSTAR": 0, "MEAN_MOTION_DOT": 6.8e-07, "MEAN_MOTION_DDOT": 0}, "tle": {"line1": "1 38091U 12008A   25339.08294111  .00000068  00000+0  00000+0 0  9992", "line2": "2 38091   3.0890  70.7304 0012432 225.8222 226.1620  1.00272818 50428"}}, "geometry": {"type": "Point", "coordinates": [84.43225643606955, 0.7581787821564282]}}, {"type": "Feature", "properties": {"norad_id": 38250, "name": "BEIDOU-2 M3 (C11)", "group": "beidou", "lat": -11.352642207636451, "lon": -56.43907704167603, "alt_km": 21509.14150581734, "timestamp": "2025-12-05T20:43:02.320463+00:00", "meta": {"OBJECT_NAME": "BEIDOU-2 M3 (C11)", "OBJECT_ID": "2012-018A", "EPOCH": "2025-12-04T06:32:53.001888", "MEAN_MOTION": 1.86229694, "ECCENTRICITY": 0.0024462, "INCLINATION": 55.9274, "RA_OF_ASC_NODE": 311.4423, "ARG_OF_PERICENTER": 273.73, "MEAN_ANOMALY": 85.9745, "EPHEMERIS_TYPE": 0, "CLASSIFICATION_TYPE": "U", "NORAD_CAT_ID": 38250, "ELEMENT_SET_NO": 999, "REV_AT_EPOCH": 9231, "BSTAR": 0, "MEAN_MOTION_DOT": -6.8e-07, "MEAN_MOTION_DDOT": 0}, "tle": {"line1": "1 38250U 12018A   25338.27283567 -.00000068  00000+0  00000+0 0  9994", "line2": "2 38250  55.9274 311.4423 0024462 273.7300  85.9745  1.86229694 92310"}}, "geometry": {"type": "Point", "coordinates": [-56.43907704167603, -11.352642207636451]}}, {"type": "Feature", "properties": {"norad_id": 38251, "name": "BEIDOU-2 M4 (C12)", "group": "beidou", "lat": 25.85564123496148, "lon": -30.191347702134728, "alt_km": 21543.394606672915, "timestamp": "2025-12-05T20:43:02.320474+00:00", "meta": {"OBJECT_NAME": "BEIDOU-2 M4 (C12)", "OBJECT_ID": "2012-018B", "EPOCH": "2025-12-04T04:55:01.467840", "MEAN_MOTION": 1.86229385, "ECCENTRICITY": 0.0015607, "INCLINATION": 55.8289, "RA_OF_ASC_NODE": 310.6742, "ARG_OF_PERICENTER": 276.8686, "MEAN_ANOMALY": 82.9379, "EPHEMERIS_TYPE": 0, "CLASSIFICATION_TYPE": "U", "NORAD_CAT_ID": 38251, "ELEMENT_SET_NO": 999, "REV_AT_EPOCH": 9231, "BSTAR": 0, "MEAN_MOTION_DOT": -6.8e-07, "MEAN_MOTION_DDOT": 0}, "tle": {"line1": "1 38251U 12018B   25338.20487810 -.00000068  00000+0  00000+0 0  9995", "line2": "2 38251  55.8289 310.6742 0015607 276.8686  82.9379  1.86229385 92310"}}, "geometry": {"type": "Point", "coordinates": [-30.191347702134728, 25.85564123496148]}}, {"type": "Feature", "properties": {"norad_id": 38775, "name": "BEIDOU-2 M6 (C14)", "group": "beidou", "lat": -36.459727348147965, "lon": -81.29438010915268, "alt_km": 21548.18156136983, "timestamp": "2025-12-05T20:43:02.320486+00:00", "meta": {"OBJECT_NAME": "BEIDOU-2 M6 (C14)", "OBJECT_ID": "2012-050B", "EPOCH": "2025-12-03T09:05:34.856160", "MEAN_MOTION": 1.86230686, "ECCENTRICITY": 0.00108899, "INCLINATION": 56.3706, "RA_OF_ASC_NODE": 69.3782, "ARG_OF_PERICENTER": 346.3356, "MEAN_ANOMALY": 13.638, "EPHEMERIS_TYPE": 0, "CLASSIFICATION_TYPE": "U", "NORAD_CAT_ID": 38775, "ELEMENT_SET_NO": 999, "REV_AT_EPOCH": 8966, "BSTAR": 0, "MEAN_MOTION_DOT": -5e-07, "MEAN_MOTION_DDOT": 0}, "tle": {"line1": "1 38775U 12050B   25337.37887565 -.00000050  00000+0  00000+0 0  9991", "line2": "2 38775  56.3706  69.3782 0010889 346.3356  13.6380  1.86230686 89660"}}, "geometry": {"type": "Point", "coordinates": [-81.29438010915268, -36.459727348147965]}}]}